[{"OBJECT_NAME":"OBJECT B","OBJECT_ID":"2022-056B","EPOCH":"2026-03-09T22:39:35.138880","MEAN_MOTION":13.29579463,"ECCENTRICITY":0.00429696,"INCLINATION":86.011,"RA_OF_ASC_NODE":137.4743,"ARG_OF_PERICENTER":311.6914,"MEAN_ANOMALY":48.0548,"EPHEMERIS_TYPE":0,"CLASSIFICATION_TYPE":"U","NORAD_CAT_ID":52717,"ELEMENT_SET_NO":999,"REV_AT_EPOCH":18512,"BSTAR":-0.00081071563,"MEAN_MOTION_DOT":-3.63e-6,"MEAN_MOTION_DDOT":0},{"OBJECT_NAME":"ONEWEB-0584","OBJECT_ID":"2022-166K","EPOCH":"2026-03-09T22:11:18.831264","MEAN_MOTION":13.21825743,"ECCENTRICITY":0.00013411,"INCLINATION":87.9161,"RA_OF_ASC_NODE":263.7793,"ARG_OF_PERICENTER":85.6717,"MEAN_ANOMALY":274.4571,"EPHEMERIS_TYPE":0,"CLASSIFICATION_TYPE":"U","NORAD_CAT_ID":54651,"ELEMENT_SET_NO":999,"REV_AT_EPOCH":15840,"BSTAR":-0.00021990395,"MEAN_MOTION_DOT":-7.8e-7,"MEAN_MOTION_DDOT":0}]
